LEMUR-2-LEIA-PHILIP     
1 63246U 25052AN  26199.14373514 -.00000002  00000+0  48121-5 0  9993
2 63246  97.6797  90.5694 0005053 113.1801 246.9954 14.97392404 73304
LEMUR-2-LIA-MARTIN      
1 63248U 25052AQ  26198.13509070  .00001570  00000+0  13775-3 0  9996
2 63248  97.6861  90.1001 0005189  85.6997 274.4819 14.98037500 73169
LEMUR-2-DELOITTE-1      
1 63259U 25052BB  26199.25157598  .00002417  00000+0  21075-3 0  9999
2 63259  97.6885  91.5291 0002540  60.6586 299.4890 14.97797028 73341
LEMUR-2-EMERSONROSE     
1 63261U 25052BD  26199.12920337  .00002342  00000+0  19662-3 0  9993
2 63261  97.6882  92.0287 0002567  54.8265 305.3198 14.99305968 73371
LEMUR-2-MARACHE-FRAN    
1 63262U 25052BE  26198.94983519  .00001660  00000+0  13706-3 0  9999
2 63262  97.6823  92.2216 0005522 241.3686 118.6983 15.00325136 73374
LEMUR-2-THEFALCONER     
1 63264U 25052BG  26198.94840327  .00001056  00000+0  95366-4 0  9992
2 63264  97.6821  90.8183 0000473 247.5974 112.5198 14.97569358 73292
LEMUR-2-UNTITLED-SC     
1 63351U 25061A   26198.89632529  .00001728  00000+0  99399-4 0  9992
2 63351  97.5659 174.0411 0019467 154.0615 206.1596 15.13655854 72234
LEMUR-2-ESPERANZA       
1 63352U 25061B   26198.87147057  .00001760  00000+0  10093-3 0  9997
2 63352  97.5666 174.1173 0019065 153.4067 206.8147 15.13762207 72237
LEMUR-2-KREMPEL-BRO2    
1 63353U 25061C   26198.88968886  .00001815  00000+0  10269-3 0  9996
2 63353  97.5710 174.7078 0020205 146.3722 213.8796 15.14188924 72254
LEMUR-2-THERMORAPTOR    
1 63354U 25061D   26198.87009884  .00001832  00000+0  10340-3 0  9999
2 63354  97.5717 174.7700 0019928 145.3232 214.9303 15.14271810 72252
LEMUR-2-NEUROSPICY      
1 63355U 25061E   26198.90547806  .00001835  00000+0  10329-3 0  9995
2 63355  97.5645 174.4075 0017743 148.0319 212.1993 15.14390742 72266
LEMUR-2-TILLINFINITY    
1 63356U 25061F   26199.19310291  .00001774  00000+0  98284-4 0  9993
2 63356  97.5630 175.0058 0019296 136.1599 224.1169 15.14976823 72338
LEMUR-2-KREMPEL-BRO1    
1 63357U 25061G   26199.17053601  .00001842  00000+0  10247-3 0  9999
2 63357  97.5632 174.8906 0019920 137.5923 222.6852 15.14782932 72327
LEMUR-2-LANGER2SPACE    
1 63358U 25061H   26199.20326359  .00001868  00000+0  10483-3 0  9997
2 63358  97.5636 174.7248 0017655 145.4029 214.8355 15.14476819 72312
LEMUR-2-BALTO           
1 63395U 25052BH  26197.93372968  .00002437  00000+0  19881-3 0  9997
2 63395  97.6925  91.2085 0005044 320.2373  39.8480 15.00373082 73229
LEMUR-2-KRISH           
1 64561U 25135AK  26199.10249528  .00001924  00000+0  17470-3 0  9993
2 64561  97.7768 313.7742 0001130 101.0132 259.1216 14.96459459 58542
